CCSDS_OMM_VERS = 2.0
CREATION_DATE  = 
ORIGINATOR     = 

OBJECT_NAME    = 2026-027B
OBJECT_ID      = 2026-027B
CENTER_NAME    = EARTH
REF_FRAME      = TEME
TIME_SYSTEM    = UTC
MEAN_ELEMENT_THEORY = SGP/SGP4

EPOCH          = 2026-02-24T18:41:40.318368
MEAN_MOTION    = 15.17526818
ECCENTRICITY   = .0009565
INCLINATION    = 97.4876
RA_OF_ASC_NODE = 184.9331
ARG_OF_PERICENTER = 244.3588
MEAN_ANOMALY   = 115.6657

EPHEMERIS_TYPE = 0
CLASSIFICATION_TYPE = U
NORAD_CAT_ID   = 67747
ELEMENT_SET_NO = 999
REV_AT_EPOCH   = 190
BSTAR          = .42495E-3
MEAN_MOTION_DOT = .8469E-4
MEAN_MOTION_DDOT = 0

CCSDS_OMM_VERS = 2.0
CREATION_DATE  = 
ORIGINATOR     = 

OBJECT_NAME    = 2026-027C
OBJECT_ID      = 2026-027C
CENTER_NAME    = EARTH
REF_FRAME      = TEME
TIME_SYSTEM    = UTC
MEAN_ELEMENT_THEORY = SGP/SGP4

EPOCH          = 2026-02-24T18:40:13.482912
MEAN_MOTION    = 15.17616131
ECCENTRICITY   = .000992
INCLINATION    = 97.4888
RA_OF_ASC_NODE = 184.9365
ARG_OF_PERICENTER = 247.3573
MEAN_ANOMALY   = 112.6612

EPHEMERIS_TYPE = 0
CLASSIFICATION_TYPE = U
NORAD_CAT_ID   = 67748
ELEMENT_SET_NO = 999
REV_AT_EPOCH   = 190
BSTAR          = .30994E-3
MEAN_MOTION_DOT = .6173E-4
MEAN_MOTION_DDOT = 0

CCSDS_OMM_VERS = 2.0
CREATION_DATE  = 
ORIGINATOR     = 

OBJECT_NAME    = 2026-027D
OBJECT_ID      = 2026-027D
CENTER_NAME    = EARTH
REF_FRAME      = TEME
TIME_SYSTEM    = UTC
MEAN_ELEMENT_THEORY = SGP/SGP4

EPOCH          = 2026-02-24T18:38:09.338208
MEAN_MOTION    = 15.17841115
ECCENTRICITY   = .000973
INCLINATION    = 97.4883
RA_OF_ASC_NODE = 184.9377
ARG_OF_PERICENTER = 252.0596
MEAN_ANOMALY   = 107.9578

EPHEMERIS_TYPE = 0
CLASSIFICATION_TYPE = U
NORAD_CAT_ID   = 67749
ELEMENT_SET_NO = 999
REV_AT_EPOCH   = 185
BSTAR          = .49297E-3
MEAN_MOTION_DOT = .9927E-4
MEAN_MOTION_DDOT = 0

CCSDS_OMM_VERS = 2.0
CREATION_DATE  = 
ORIGINATOR     = 

OBJECT_NAME    = 2026-027E
OBJECT_ID      = 2026-027E
CENTER_NAME    = EARTH
REF_FRAME      = TEME
TIME_SYSTEM    = UTC
MEAN_ELEMENT_THEORY = SGP/SGP4

EPOCH          = 2026-02-24T18:38:04.852320
MEAN_MOTION    = 15.17832052
ECCENTRICITY   = .0008876
INCLINATION    = 97.4894
RA_OF_ASC_NODE = 184.9397
ARG_OF_PERICENTER = 253.5081
MEAN_ANOMALY   = 106.5177

EPHEMERIS_TYPE = 0
CLASSIFICATION_TYPE = U
NORAD_CAT_ID   = 67750
ELEMENT_SET_NO = 999
REV_AT_EPOCH   = 190
BSTAR          = .43829E-3
MEAN_MOTION_DOT = .8813E-4
MEAN_MOTION_DDOT = 0

CCSDS_OMM_VERS = 2.0
CREATION_DATE  = 
ORIGINATOR     = 

OBJECT_NAME    = 2026-027F
OBJECT_ID      = 2026-027F
CENTER_NAME    = EARTH
REF_FRAME      = TEME
TIME_SYSTEM    = UTC
MEAN_ELEMENT_THEORY = SGP/SGP4

EPOCH          = 2026-02-24T18:36:58.574016
MEAN_MOTION    = 15.17996764
ECCENTRICITY   = .0010068
INCLINATION    = 97.4892
RA_OF_ASC_NODE = 184.9410
ARG_OF_PERICENTER = 253.1708
MEAN_ANOMALY   = 106.8422

EPHEMERIS_TYPE = 0
CLASSIFICATION_TYPE = U
NORAD_CAT_ID   = 67751
ELEMENT_SET_NO = 999
REV_AT_EPOCH   = 190
BSTAR          = .68243E-3
MEAN_MOTION_DOT = .13839E-3
MEAN_MOTION_DDOT = 0

CCSDS_OMM_VERS = 2.0
CREATION_DATE  = 
ORIGINATOR     = 

OBJECT_NAME    = 2026-027G
OBJECT_ID      = 2026-027G
CENTER_NAME    = EARTH
REF_FRAME      = TEME
TIME_SYSTEM    = UTC
MEAN_ELEMENT_THEORY = SGP/SGP4

EPOCH          = 2026-02-24T18:37:02.899200
MEAN_MOTION    = 15.17925819
ECCENTRICITY   = .0009194
INCLINATION    = 97.4888
RA_OF_ASC_NODE = 184.9396
ARG_OF_PERICENTER = 255.7475
MEAN_ANOMALY   = 104.2738

EPHEMERIS_TYPE = 0
CLASSIFICATION_TYPE = U
NORAD_CAT_ID   = 67752
ELEMENT_SET_NO = 999
REV_AT_EPOCH   = 190
BSTAR          = .44842E-3
MEAN_MOTION_DOT = .9044E-4
MEAN_MOTION_DDOT = 0

CCSDS_OMM_VERS = 2.0
CREATION_DATE  = 
ORIGINATOR     = 

OBJECT_NAME    = 2026-027H
OBJECT_ID      = 2026-027H
CENTER_NAME    = EARTH
REF_FRAME      = TEME
TIME_SYSTEM    = UTC
MEAN_ELEMENT_THEORY = SGP/SGP4

EPOCH          = 2026-02-24T19:44:31.370784
MEAN_MOTION    = 15.64540108
ECCENTRICITY   = .025066
INCLINATION    = 97.5124
RA_OF_ASC_NODE = 185.8861
ARG_OF_PERICENTER = 292.6010
MEAN_ANOMALY   = 64.8907

EPHEMERIS_TYPE = 0
CLASSIFICATION_TYPE = U
NORAD_CAT_ID   = 67753
ELEMENT_SET_NO = 999
REV_AT_EPOCH   = 196
BSTAR          = .61216E-3
MEAN_MOTION_DOT = .352577E-2
MEAN_MOTION_DDOT = .23582E-5

CCSDS_OMM_VERS = 2.0
CREATION_DATE  = 
ORIGINATOR     = 

OBJECT_NAME    = 2026-027J
OBJECT_ID      = 2026-027J
CENTER_NAME    = EARTH
REF_FRAME      = TEME
TIME_SYSTEM    = UTC
MEAN_ELEMENT_THEORY = SGP/SGP4

EPOCH          = 2026-02-24T18:43:44.812992
MEAN_MOTION    = 15.75717326
ECCENTRICITY   = .0212008
INCLINATION    = 97.5084
RA_OF_ASC_NODE = 185.9413
ARG_OF_PERICENTER = 291.5839
MEAN_ANOMALY   = 66.2955

EPHEMERIS_TYPE = 0
CLASSIFICATION_TYPE = U
NORAD_CAT_ID   = 67754
ELEMENT_SET_NO = 999
REV_AT_EPOCH   = 190
BSTAR          = .12202E-2
MEAN_MOTION_DOT = .892255E-2
MEAN_MOTION_DDOT = .24068E-5

CCSDS_OMM_VERS = 2.0
CREATION_DATE  = 
ORIGINATOR     = 

OBJECT_NAME    = 2026-028A
OBJECT_ID      = 2026-028A
CENTER_NAME    = EARTH
REF_FRAME      = TEME
TIME_SYSTEM    = UTC
MEAN_ELEMENT_THEORY = SGP/SGP4

EPOCH          = 2026-02-24T06:49:14.640672
MEAN_MOTION    = 0.99526640
ECCENTRICITY   = .0042027
INCLINATION    = 0.5020
RA_OF_ASC_NODE = 288.8290
ARG_OF_PERICENTER = 229.9776
MEAN_ANOMALY   = 201.3447

EPHEMERIS_TYPE = 0
CLASSIFICATION_TYPE = U
NORAD_CAT_ID   = 67756
ELEMENT_SET_NO = 999
REV_AT_EPOCH   = 12
BSTAR          = 0
MEAN_MOTION_DOT = -.189E-5
MEAN_MOTION_DDOT = 0

CCSDS_OMM_VERS = 2.0
CREATION_DATE  = 
ORIGINATOR     = 

OBJECT_NAME    = KUIPER-00159
OBJECT_ID      = 2026-030A
CENTER_NAME    = EARTH
REF_FRAME      = TEME
TIME_SYSTEM    = UTC
MEAN_ELEMENT_THEORY = SGP/SGP4

EPOCH          = 2026-02-24T19:26:35.941344
MEAN_MOTION    = 15.35117916
ECCENTRICITY   = .0004106
INCLINATION    = 51.8855
RA_OF_ASC_NODE = 281.2485
ARG_OF_PERICENTER = 14.9266
MEAN_ANOMALY   = 345.1840

EPHEMERIS_TYPE = 0
CLASSIFICATION_TYPE = U
NORAD_CAT_ID   = 67764
ELEMENT_SET_NO = 999
REV_AT_EPOCH   = 311
BSTAR          = .76151E-3
MEAN_MOTION_DOT = .26064E-3
MEAN_MOTION_DDOT = 0

CCSDS_OMM_VERS = 2.0
CREATION_DATE  = 
ORIGINATOR     = 

OBJECT_NAME    = KUIPER-00160
OBJECT_ID      = 2026-030B
CENTER_NAME    = EARTH
REF_FRAME      = TEME
TIME_SYSTEM    = UTC
MEAN_ELEMENT_THEORY = SGP/SGP4

EPOCH          = 2026-02-24T19:27:32.084064
MEAN_MOTION    = 15.35052953
ECCENTRICITY   = .0004692
INCLINATION    = 51.8827
RA_OF_ASC_NODE = 281.2475
ARG_OF_PERICENTER = 23.4493
MEAN_ANOMALY   = 336.6706

EPHEMERIS_TYPE = 0
CLASSIFICATION_TYPE = U
NORAD_CAT_ID   = 67765
ELEMENT_SET_NO = 999
REV_AT_EPOCH   = 311
BSTAR          = .95845E-3
MEAN_MOTION_DOT = .32867E-3
MEAN_MOTION_DDOT = 0

CCSDS_OMM_VERS = 2.0
CREATION_DATE  = 
ORIGINATOR     = 

OBJECT_NAME    = KUIPER-00177
OBJECT_ID      = 2026-030C
CENTER_NAME    = EARTH
REF_FRAME      = TEME
TIME_SYSTEM    = UTC
MEAN_ELEMENT_THEORY = SGP/SGP4

EPOCH          = 2026-02-24T19:17:02.248800
MEAN_MOTION    = 15.35892487
ECCENTRICITY   = .0000625
INCLINATION    = 51.8836
RA_OF_ASC_NODE = 281.2028
ARG_OF_PERICENTER = 66.4340
MEAN_ANOMALY   = 293.6712

EPHEMERIS_TYPE = 0
CLASSIFICATION_TYPE = U
NORAD_CAT_ID   = 67766
ELEMENT_SET_NO = 999
REV_AT_EPOCH   = 311
BSTAR          = .73195E-3
MEAN_MOTION_DOT = .25667E-3
MEAN_MOTION_DDOT = 0

