2026-027B               
1 67747U 26027B   26055.77893887  .00008469  00000+0  42495-3 0  9996
2 67747  97.4876 184.9331 0009565 244.3588 115.6657 15.17526818  1907
2026-027C               
1 67748U 26027C   26055.77793383  .00006173  00000+0  30994-3 0  9998
2 67748  97.4888 184.9365 0009920 247.3573 112.6612 15.17616131  1906
2026-027D               
1 67749U 26027D   26055.77649697  .00009927  00000+0  49297-3 0  9993
2 67749  97.4883 184.9377 0009730 252.0596 107.9578 15.17841115  1856
2026-027E               
1 67750U 26027E   26055.77644505  .00008813  00000+0  43829-3 0  9996
2 67750  97.4894 184.9397 0008876 253.5081 106.5177 15.17832052  1903
2026-027F               
1 67751U 26027F   26055.77567794  .00013839  00000+0  68243-3 0  9992
2 67751  97.4892 184.9410 0010068 253.1708 106.8422 15.17996764  1903
2026-027G               
1 67752U 26027G   26055.77572800  .00009044  00000+0  44842-3 0  9999
2 67752  97.4888 184.9396 0009194 255.7475 104.2738 15.17925819  1904
2026-027H               
1 67753U 26027H   26055.82258531  .00352577  23582-5  61216-3 0  9990
2 67753  97.5124 185.8861 0250660 292.6010  64.8907 15.64540108  1968
2026-027J               
1 67754U 26027J   26055.78037978  .00892255  24068-5  12202-2 0  9998
2 67754  97.5084 185.9413 0212008 291.5839  66.2955 15.75717326  1902
2026-028A               
1 67756U 26028A   26055.28419723 -.00000189  00000+0  00000+0 0  9990
2 67756   0.5020 288.8290 0042027 229.9776 201.3447  0.99526640   129
KUIPER-00159            
1 67764U 26030A   26055.81013821  .00026064  00000+0  76151-3 0  9993
2 67764  51.8855 281.2485 0004106  14.9266 345.1840 15.35117916  3112
KUIPER-00160            
1 67765U 26030B   26055.81078801  .00032867  00000+0  95845-3 0  9992
2 67765  51.8827 281.2475 0004692  23.4493 336.6706 15.35052953  3113
KUIPER-00177            
1 67766U 26030C   26055.80349825  .00025667  00000+0  73195-3 0  9993
2 67766  51.8836 281.2028 0000625  66.4340 293.6712 15.35892487  3111
